NORAD_CAT_ID,OBJECT_NAME,OBJECT_TYPE,EPOCH,MEAN_MOTION,ECCENTRICITY,INCLINATION,RA_OF_ASC_NODE,ARG_OF_PERICENTER,MEAN_ANOMALY,BSTAR,MEAN_MOTION_DOT,MEAN_MOTION_DDOT,TLE_LINE0,TLE_LINE1,TLE_LINE2,SEMIMAJOR_AXIS,PERIOD,APOGEE,PERIGEE,DECAYED
56457.0,STARLINK-5994,PAYLOAD,2024-08-09 12:47:14,14.98340183,0.0002203,70.0049,159.668,295.8439,64.2493,-0.00010893,-1.393e-05,0.0,0 STARLINK-5994,1 56457U 23064K   24222.53280878 -.00001393  00000-0 -10893-3 0  9997,2 56457  70.0049 159.6680 0002203 295.8439  64.2493 14.98340183 69151,6950.161,96.106,573.558,570.495,0.0
56457.0,STARLINK-5994,PAYLOAD,2024-08-09 20:47:54,14.9833593,0.0002418,70.0019,158.8303,265.3663,94.722,-0.0001624,-2.03e-05,0.0,0 STARLINK-5994,1 56457U 23064K   24222.86660830 -.00002030  00000-0 -16240-3 0  9994,2 56457  70.0019 158.8303 0002418 265.3663  94.7220 14.98335930 68845,6950.175,96.107,573.72,570.359,0.0
56457.0,STARLINK-5994,PAYLOAD,2024-08-10 04:48:35,14.98334103,0.0002596,70.0021,157.9896,246.1224,113.9663,-0.00016469,-2.058e-05,0.0,0 STARLINK-5994,1 56457U 23064K   24223.20040735 -.00002058  00000-0 -16469-3 0  9992,2 56457  70.0021 157.9896 0002596 246.1224 113.9663 14.98334103 68893,6950.18,96.107,573.849,570.241,0.0
56457.0,STARLINK-5994,PAYLOAD,2024-08-10 20:49:55,14.98334311,0.0002934,70.0008,156.3053,258.9315,101.1514,3.5488e-06,-5.1e-07,0.0,0 STARLINK-5994,1 56457U 23064K   24223.86800176 -.00000051  00000-0  35488-5 0  9991,2 56457  70.0008 156.3053 0002934 258.9315 101.1514 14.98334311 69351,6950.18,96.107,574.084,570.005,0.0
56457.0,STARLINK-5994,PAYLOAD,2024-08-10 22:26:03,14.98336,0.0002832,70.0011,156.1369,256.1091,103.9753,1.0232e-05,2.9e-07,0.0,0 STARLINK-5994,1 56457U 23064K   24223.93476039  .00000029  00000-0  10232-4 0  9999,2 56457  70.0011 156.1369 0002832 256.1091 103.9753 14.98336000 69005,6950.174,96.107,574.008,570.071,0.0
56457.0,STARLINK-5994,PAYLOAD,2024-08-11 22:28:04,14.98321244,0.0002809,70.001,153.6104,275.3057,84.7781,0.00014611,1.65e-05,0.0,0 STARLINK-5994,1 56457U 23064K   24224.93616615  .00001650  00000-0  14611-3 0  9991,2 56457  70.0010 153.6104 0002809 275.3057  84.7781 14.98321244 69159,6950.22,96.108,574.037,570.133,0.0
56457.0,STARLINK-5994,PAYLOAD,2024-08-12 04:52:35,14.98337299,0.0002751,70.0014,152.9369,268.016,92.0684,0.00043528,5.105e-05,0.0,0 STARLINK-5994,1 56457U 23064K   24225.20318864  .00005105  00000-0  43528-3 0  9995,2 56457  70.0014 152.9369 0002751 268.0160  92.0684 14.98337299 69553,6950.17,96.107,573.947,570.123,0.0
56457.0,STARLINK-5994,PAYLOAD,2024-08-12 22:30:04,14.98341477,0.0002811,70.0012,151.0863,265.9532,94.1306,4.7112e-05,4.69e-06,0.0,0 STARLINK-5994,1 56457U 23064K   24225.93755213  .00000469  00000-0  47112-4 0  9990,2 56457  70.0012 151.0863 0002811 265.9532  94.1306 14.98341477 69306,6950.157,96.106,573.976,570.069,0.0
56457.0,STARLINK-5994,PAYLOAD,2024-08-13 04:54:35,14.98356861,0.0002736,70.0009,150.4123,264.7593,95.3254,0.00020172,2.316e-05,0.0,0 STARLINK-5994,1 56457U 23064K   24226.20457420  .00002316  00000-0  20172-3 0  9999,2 56457  70.0009 150.4123 0002736 264.7593  95.3254 14.98356861 69706,6950.11,96.105,573.876,570.073,0.0
56457.0,STARLINK-5994,PAYLOAD,2024-08-13 12:55:18,14.98318366,0.0002168,70.0043,149.57,281.7315,78.3601,-0.00019143,-2.375e-05,0.0,0 STARLINK-5994,1 56457U 23064K   24226.53840996 -.00002375  00000-0 -19143-3 0  9992,2 56457  70.0043 149.5700 0002168 281.7315  78.3601 14.98318366 69754,6950.229,96.108,573.601,570.587,0.0
56457.0,STARLINK-5994,PAYLOAD,2024-08-13 17:43:45,14.98279333,0.0002712,70.0014,149.0672,277.7847,82.3004,-0.00046119,-5.584e-05,0.0,0 STARLINK-5994,1 56457U 23064K   24226.73872113 -.00005584  00000-0 -46119-3 0  9998,2 56457  70.0014 149.0672 0002712 277.7847  82.3004 14.98279333 69780,6950.35,96.11,574.1,570.33,0.0
56457.0,STARLINK-5994,PAYLOAD,2024-08-13 22:32:10,14.98279737,0.0002758,70.0004,148.5619,275.6103,84.4741,-0.00042646,-5.171e-05,0.0,0 STARLINK-5994,1 56457U 23064K   24226.93900510 -.00005171  00000-0 -42646-3 0  9996,2 56457  70.0004 148.5619 0002758 275.6103  84.4741 14.98279737 69459,6950.348,96.11,574.13,570.296,0.0
56457.0,STARLINK-5994,PAYLOAD,2024-08-14 04:56:42,14.98290337,0.0002633,70.0013,147.8886,274.1988,85.887,-0.00053391,-6.451e-05,0.0,0 STARLINK-5994,1 56457U 23064K   24227.20604803 -.00006451  00000-0 -53391-3 0  9994,2 56457  70.0013 147.8886 0002633 274.1988  85.8870 14.98290337 69855,6950.316,96.11,574.011,570.351,0.0
56457.0,STARLINK-5994,PAYLOAD,2024-08-14 19:21:52,14.9833103,0.0002799,70.0006,146.3731,271.7148,88.369,5.9868e-05,6.21e-06,0.0,0 STARLINK-5994,1 56457U 23064K   24227.80685305  .00000621  00000-0  59868-4 0  9993,2 56457  70.0006 146.3731 0002799 271.7148  88.3690 14.98331030 69948,6950.19,96.107,574.0,570.109,0.0
56457.0,STARLINK-5994,PAYLOAD,2024-08-14 22:34:06,14.98349383,0.0002662,70.0007,146.0366,264.1362,95.9493,0.00024178,2.794e-05,0.0,0 STARLINK-5994,1 56457U 23064K   24227.94035729  .00002794  00000-0  24178-3 0  9995,2 56457  70.0007 146.0366 0002662 264.1362  95.9493 14.98349383 69601,6950.133,96.106,573.848,570.148,0.0
56457.0,STARLINK-5994,PAYLOAD,2024-08-15 04:58:38,14.98362537,0.0002635,70.0011,145.3651,260.6033,99.4828,0.00023385,2.701e-05,0.0,0 STARLINK-5994,1 56457U 23064K   24228.20738662  .00002701  00000-0  23385-3 0  9998,2 56457  70.0011 145.3651 0002635 260.6033  99.4828 14.98362537 70004,6950.092,96.105,573.789,570.126,0.0
56457.0,STARLINK-5994,PAYLOAD,2024-08-15 11:23:11,14.98344649,0.0002614,70.0001,144.6906,269.9541,90.1318,-9.9312e-06,-2.11e-06,0.0,0 STARLINK-5994,1 56457U 23064K   24228.47444116 -.00000211  00000-0 -99312-5 0  9996,2 56457  70.0001 144.6906 0002614 269.9541  90.1318 14.98344649 69689,6950.148,96.106,573.829,570.196,0.0
56457.0,STARLINK-5994,PAYLOAD,2024-08-15 22:36:09,14.98310539,0.0002502,70.0016,143.5129,271.9134,88.1738,0.00058453,6.885e-05,0.0,0 STARLINK-5994,1 56457U 23064K   24228.94177699  .00006885  00000-0  58453-3 0  9997,2 56457  70.0016 143.5129 0002502 271.9134  88.1738 14.98310539 69759,6950.253,96.108,573.857,570.379,0.0
56457.0,STARLINK-5994,PAYLOAD,2024-08-16 05:00:41,14.98316146,0.0002456,70.0018,142.8414,264.294,95.7939,0.00060763,7.162e-05,0.0,0 STARLINK-5994,1 56457U 23064K   24229.20881617  .00007162  00000-0  60763-3 0  9995,2 56457  70.0018 142.8414 0002456 264.2940  95.7939 14.98316146 70151,6950.236,96.108,573.808,570.394,0.0
56457.0,STARLINK-5994,PAYLOAD,2024-08-17 05:02:41,14.98349529,0.0002567,70.0015,140.3162,251.46,108.628,-9.6245e-05,-1.242e-05,0.0,0 STARLINK-5994,1 56457U 23064K   24230.21020060 -.00001242  00000-0 -96245-4 0  9995,2 56457  70.0015 140.3162 0002567 251.4600 108.6280 14.98349529 70306,6950.132,96.106,573.782,570.213,0.0
56457.0,STARLINK-5994,PAYLOAD,2024-08-17 17:51:46,14.9833366,0.0002179,70.003,138.9675,266.4904,93.6006,4.5249e-07,-8.7e-07,0.0,0 STARLINK-5994,1 56457U 23064K   24230.74428743 -.00000087  00000-0  45249-6 0  9998,2 56457  70.0030 138.9675 0002179 266.4904  93.6006 14.98333660 70383,6950.182,96.107,573.561,570.532,0.0
56457.0,STARLINK-5994,PAYLOAD,2024-08-18 03:28:34,14.98332561,0.0002637,70.0019,137.96,247.5732,112.5148,-4.7141e-05,-6.55e-06,0.0,0 STARLINK-5994,1 56457U 23064K   24231.14484682 -.00000655  00000-0 -47141-4 0  9990,2 56457  70.0019 137.9600 0002637 247.5732 112.5148 14.98332561 70089,6950.185,96.107,573.883,570.217,0.0
56457.0,STARLINK-5994,PAYLOAD,2024-08-18 21:06:02,14.98344299,0.0002795,70.0008,136.1063,248.5762,111.5099,-4.3202e-05,-6.09e-06,0.0,0 STARLINK-5994,1 56457U 23064K   24231.87919639 -.00000609  00000-0 -43202-4 0  9998,2 56457  70.0008 136.1063 0002795 248.5762 111.5099 14.98344299 70557,6950.149,96.106,573.956,570.071,0.0
56457.0,STARLINK-5994,PAYLOAD,2024-08-19 11:31:14,14.98351605,0.0002463,70.0017,134.5965,295.0011,65.0892,-0.00018511,-2.302e-05,0.0,0 STARLINK-5994,1 56457U 23064K   24232.48003392 -.00002302  00000-0 -18511-3 0  9992,2 56457  70.0017 134.5965 0002463 295.0011  65.0892 14.98351605 70289,6950.126,96.106,573.703,570.279,0.0
56457.0,STARLINK-5994,PAYLOAD,2024-08-19 21:08:04,14.98326636,0.0002815,69.9998,133.5794,266.912,93.1717,5.3632e-05,5.47e-06,0.0,0 STARLINK-5994,1 56457U 23064K   24232.88060389  .00000547  00000-0  53632-4 0  9996,2 56457  69.9998 133.5794 0002815 266.9120  93.1717 14.98326636 70703,6950.203,96.107,574.025,570.112,0.0
56457.0,STARLINK-5994,PAYLOAD,2024-08-20 03:32:36,14.9832328,0.0002715,70.0007,132.9074,267.9739,92.1109,3.5339e-05,3.29e-06,0.0,0 STARLINK-5994,1 56457U 23064K   24233.14764814  .00000329  00000-0  35339-4 0  9992,2 56457  70.0007 132.9074 0002715 267.9739  92.1109 14.98323280 70387,6950.214,96.107,573.966,570.192,0.0
56457.0,STARLINK-5994,PAYLOAD,2024-08-20 21:10:04,14.98338675,0.0003094,69.9997,131.0565,267.2575,92.823,7.0928e-05,7.54e-06,0.0,0 STARLINK-5994,1 56457U 23064K   24233.88199652  .00000754  00000-0  70928-4 0  9990,2 56457  69.9997 131.0565 0003094 267.2575  92.8230 14.98338675 70857,6950.166,96.106,574.181,569.881,0.0
56457.0,STARLINK-5994,PAYLOAD,2024-08-21 03:34:36,14.98346507,0.00029,70.0003,130.3837,264.455,95.6278,0.00020472,2.352e-05,0.0,0 STARLINK-5994,1 56457U 23064K   24234.14902918  .00002352  00000-0  20472-3 0  9991,2 56457  70.0003 130.3837 0002900 264.4550  95.6278 14.98346507 70899,6950.142,96.106,574.022,569.991,0.0
56457.0,STARLINK-5994,PAYLOAD,2024-08-21 19:35:58,14.98324954,0.0003198,70.0006,128.7006,269.2076,90.8717,0.00011321,1.258e-05,0.0,0 STARLINK-5994,1 56457U 23064K   24234.81664359  .00001258  00000-0  11321-3 0  9996,2 56457  70.0006 128.7006 0003198 269.2076  90.8717 14.98324954 70636,6950.208,96.107,574.296,569.851,0.0
56457.0,STARLINK-5994,PAYLOAD,2024-08-21 22:48:14,14.98325696,0.000313,70.0013,128.3645,262.5739,97.5064,0.00010738,1.188e-05,0.0,0 STARLINK-5994,1 56457U 23064K   24234.95016349  .00001188  00000-0  10738-3 0  9994,2 56457  70.0013 128.3645 0003130 262.5739  97.5064 14.98325696 71013,6950.206,96.107,574.247,569.896,0.0
